STARLINK-30287          
1 57709U 23129M   25142.06041635  .00002154  00000+0  17453-3 0  9998
2 57709  43.0041 265.1124 0001475 271.2137  88.8536 15.02524202 96784
STARLINK-30335          
1 57710U 23129N   25142.05707837  .00000566  00000+0  56969-4 0  9993
2 57710  43.0051 265.0873 0001234 269.1512  90.9189 15.02536319 96783
STARLINK-30318          
1 57711U 23129P   25142.39945984 -.00000094  00000+0  81592-5 0  9996
2 57711  43.0052 263.3382 0001563 262.6531  97.4134 15.02537467 96591
STARLINK-30348          
1 57712U 23129Q   25141.78118051 -.00000108  00000+0  71053-5 0  9993
2 57712  43.0014 266.4532 0001302 268.3201  91.7492 15.02536328 96745
STARLINK-30349          
1 57713U 23129R   25142.30636269 -.00001932  00000+0 -12803-3 0  9992
2 57713  43.0017 263.5143 0000880 257.3926 102.6818 15.02519377 96522
STARLINK-30341          
1 57714U 23129S   25142.41599319 -.00000171  00000+0  24450-5 0  9995
2 57714  43.0051 262.6168 0001566 272.6153  87.4510 15.02534945 96844
STARLINK-30300          
1 57715U 23129T   25142.05042612 -.00001696  00000+0 -11055-3 0  9994
2 57715  43.0023 265.0327 0000904 267.1589  92.9149 15.02524047 96789
STARLINK-30281          
1 57716U 23129U   25141.63157811 -.00000175  00000+0  21122-5 0  9994
2 57716  43.0026 267.0498 0000518 231.4396 128.6400 15.02536791 96589
STARLINK-30325          
1 57717U 23129V   25142.04376763 -.00000248  00000+0 -32830-5 0  9990
2 57717  43.0037 264.9830 0001562 270.3549  89.7115 15.02533190 96782
STARLINK-30338          
1 57718U 23129W   25141.83434577 -.00000752  00000+0 -40594-4 0  9990
2 57718  43.0041 265.9945 0001463 266.5354  93.5321 15.02530432 96741
STARLINK-30334          
1 57719U 23129X   25141.63823502  .00000266  00000+0  34743-4 0  9996
2 57719  43.0031 267.1042 0001163 268.8695  91.2014 15.02537421 96584
YAOGAN-39 01A           
1 57727U 23130A   25142.25684278  .00007875  00000+0  32886-3 0  9999
2 57727  35.0025  67.1949 0005034 228.4478 131.5806 15.22910518 96078
YAOGAN-39 01B           
1 57728U 23130B   25142.25700602  .00006451  00000+0  32542-3 0  9998
2 57728  34.9954  68.9668 0013316 143.4878 216.6745 15.16394118 96079
YAOGAN-39 01C           
1 57731U 23130E   25142.25324219  .00006157  00000+0  31076-3 0  9992
2 57731  34.9945  68.9393 0001071 131.4441 228.6363 15.16458624 96056
STARLINK-30375          
1 57732U 23131A   25142.46845626 -.00000137  00000+0  49176-5 0  9992
2 57732  43.0060 301.7114 0001260 265.5007  94.5691 15.02533962 96151
STARLINK-30310          
1 57733U 23131B   25141.55178447  .00001173  00000+0  10187-3 0  9990
2 57733  43.0040 318.7877 0001535 270.2304  89.8362 15.02538545 95997
STARLINK-30365          
1 57734U 23131C   25141.78784502  .00000780  00000+0  72821-4 0  9998
2 57734  43.0032 317.9480 0001070 266.7560  93.3160 15.02531423 95992
STARLINK-30371          
1 57735U 23131D   25141.83101729  .00000377  00000+0  42998-4 0  9993
2 57735  43.0040 317.4418 0001309 264.0409  96.0284 15.02536015 95917
STARLINK-30352          
1 57736U 23131E   25142.55228822 -.00000718  00000+0 -38063-4 0  9997
2 57736  43.0074 313.3989 0000947 256.7821 103.2916 15.02534815 96028
STARLINK-30344          
1 57737U 23131F   25142.50800848 -.00000729  00000+0 -38914-4 0  9994
2 57737  43.0045 313.9306 0001491 267.0859  92.9813 15.02536400 95859
STARLINK-30351          
1 57738U 23131G   25142.46260963 -.00000035  00000+0  12475-4 0  9991
2 57738  43.0033 314.4463 0001381 272.6703  87.3982 15.02540921 96001
STARLINK-30242          
1 57739U 23131H   25142.14409784 -.00001271  00000+0 -79010-4 0  9995
2 57739  43.0038 290.6043 0001145 275.9409  84.1303 15.02533898 96257
STARLINK-30331          
1 57740U 23131J   25142.51716319 -.00000352  00000+0 -32832-5 0  9994
2 57740  43.0004 303.7954 0001267 260.6298  99.4410 15.27572872 95979
STARLINK-30364          
1 57741U 23131K   25142.51244330  .00000495  00000+0  51709-4 0  9993
2 57741  43.0039 313.9587 0001116 267.8491  92.2223 15.02537850 96008
STARLINK-30308          
1 57742U 23131L   25141.79450875  .00000222  00000+0  31498-4 0  9997
2 57742  43.0051 318.0323 0001283 271.2234  88.8462 15.02536363 95919
STARLINK-30361          
1 57743U 23131M   25142.17672767 -.00000013  00000+0  14073-4 0  9996
2 57743  43.0040 315.7409 0001104 270.7094  89.3622 15.02533838 95960
STARLINK-30363          
1 57744U 23131N   25142.46512619 -.00000143  00000+0  45038-5 0  9998
2 57744  43.0045 301.6866 0001130 256.0605 104.0112 15.02535133 96264
STARLINK-30362          
1 57745U 23131P   25142.17339751  .00000022  00000+0  16705-4 0  9994
2 57745  43.0040 315.7144 0001193 273.6409  86.4297 15.02535150 95851
STARLINK-30350          
1 57746U 23131Q   25142.46927374  .00000195  00000+0  29494-4 0  9991
2 57746  43.0041 314.4766 0001061 272.7223  87.3498 15.02531933 96104
STARLINK-30307          
1 57747U 23131R   25142.50689053 -.00001032  00000+0 -61358-4 0  9994
2 57747  43.0052 313.9145 0001179 270.3894  89.6813 15.02523293 96016
STARLINK-30356          
1 57748U 23131S   25141.83434822 -.00000335  00000+0 -96965-5 0  9990
2 57748  43.0039 317.4687 0001131 269.7302  90.3411 15.02533999 95911
STARLINK-30366          
1 57749U 23131T   25142.47914973 -.00009291  00000+0 -67271-3 0  9998
2 57749  43.0046 313.7036 0001631 258.6530 101.4129 15.02584792 96011
STARLINK-30357          
1 57750U 23131U   25141.82435528  .00000307  00000+0  37789-4 0  9991
2 57750  43.0038 317.3922 0001360 273.6301  86.4386 15.02539352 95917
STARLINK-30370          
1 57751U 23131V   25141.53111228 -.00000224  00000+0 -15197-5 0  9998
2 57751  43.0040 306.7540 0001171 262.2852  97.7857 15.02534307 96121
STARLINK-30368          
1 57752U 23131W   25142.51577463 -.00000219  00000+0 -11145-5 0  9998
2 57752  43.0044 313.9500 0001270 271.6277  88.4420 15.02530148 96118
STARLINK-30343          
1 57753U 23131X   25141.82768994 -.00000146  00000+0  42646-5 0  9991
2 57753  43.0041 317.4179 0001265 264.9655  95.1043 15.02533217 95919
WILDFIRE 4              
1 57756U 23133A   25141.89296041  .00000109  00000+0  84505-4 0  9999
2 57756  81.0039  22.3111 0009986 339.2795  20.7956 13.86278502 86907
BB4                     
1 57757U 23133B   25141.42184570  .00000215  00000+0  18169-3 0  9992
2 57757  81.0011  23.3015 0009967 344.2587  15.8257 13.84706005 86794
WILDFIRE 3              
1 57758U 23133C   25141.78940158  .00000120  00000+0  94559-4 0  9997
2 57758  80.9985  22.3054 0008923 340.2936  19.7874 13.86049135 86873
BB3                     
1 57760U 23133D   25141.41647710  .00000212  00000+0  17869-3 0  9998
2 57760  81.0011  23.4555 0009173 348.5532  11.5414 13.84696881 86781
WILDFIRE 7              
1 57761U 23133E   25142.11404228  .00000112  00000+0  89527-4 0  9992
2 57761  81.0008  23.2011 0006232  18.1969 341.9409 13.85004593 86856
CHECKMATE 10            
1 57762U 23133F   25141.41341688  .00000111  00000+0  88142-4 0  9996
2 57762  81.0023  23.5271 0006706 356.7227   3.3884 13.85417193 86781
WILDFIRE 6              
1 57763U 23133G   25141.42512786  .00000138  00000+0  11190-3 0  9994
2 57763  80.9971  23.3610 0006355   4.5351 355.5862 13.85255372 86779
WILDFIRE 1              
1 57764U 23133H   25141.89802308  .00000119  00000+0  94356-4 0  9993
2 57764  81.0016  22.8119 0006757 346.1611  13.9359 13.85648865 86869
WILDFIRE 9              
1 57765U 23133J   25141.90333716  .00000121  00000+0  96452-4 0  9990
2 57765  81.0056  23.4128 0006486 359.7858   0.3295 13.85323421 86848
WILDFIRE 10             
1 57766U 23133K   25141.80475196  .00000123  00000+0  98475-4 0  9998
2 57766  81.0046  23.2112 0006677 351.4376   8.6665 13.85535102 86848
WILDFIRE 2              
1 57767U 23133L   25141.62427088  .00000111  00000+0  88648-4 0  9994
2 57767  80.9980  23.3522 0006376  11.7867 348.3437 13.85128467 86794
WILDFIRE 8              
1 57768U 23133M   25141.81381471  .00000133  00000+0  10701-3 0  9999
2 57768  80.9969  22.8783 0006351   0.0382   0.0773 13.85356328 86841
WILDFIRE 5              
1 57769U 23133N   25142.15197855  .00000136  00000+0  10958-3 0  9996
2 57769  81.0055  23.0734 0006461 356.0564   4.0540 13.85400173 86885
CHANDRAYAAN-3 PROPULSIO*
1 57770U 23098C   25114.17834819 -.00002564  00000+0  00000+0 0  9998
2 57770  33.0768   5.2177 1916333 315.2148   8.5409  0.06308156   394
STARLINK-30397          
1 57771U 23134A   25141.83054999  .00000335  00000+0  39897-4 0  9990
2 57771  43.0047 343.7702 0001214 269.8991  90.1712 15.02534718 95409
STARLINK-30354          
1 57772U 23134B   25141.97670160  .00001770  00000+0  14609-3 0  9997
2 57772  43.0054 342.2843 0001257 259.7948 100.2753 15.02523214 95592
STARLINK-30383          
1 57773U 23134C   25141.56130295  .00000884  00000+0  80505-4 0  9997
2 57773  43.0045 345.1900 0001192 268.2375  91.8331 15.02535876 95523
STARLINK-30384          
1 57774U 23134D   25141.88703838  .00005025  00000+0  38704-3 0  9997
2 57774  43.0056 343.3316 0001345 266.5190  93.5499 15.02508417 95337
STARLINK-30305          
1 57775U 23134E   25141.95684315 -.00000117  00000+0  64289-5 0  9991
2 57775  43.0044 342.9958 0001235 267.2097  92.8604 15.02536284 95348
STARLINK-30360          
1 57776U 23134F   25141.28540412  .00000518  00000+0  53443-4 0  9990
2 57776  43.0030 346.5593 0001236 269.2936  90.7765 15.02538839 95482
STARLINK-30355          
1 57777U 23134G   25141.87704362  .00000370  00000+0  42454-4 0  9998
2 57777  43.0046 343.2307 0000980 259.2598 100.8134 15.02534696 95564
STARLINK-30385          
1 57778U 23134H   25141.83082698 -.00000400  00000+0 -14567-4 0  9996
2 57778  43.0044 330.9167 0001342 258.6623 101.4069 15.02534233 95555
STARLINK-30359          
1 57779U 23134J   25141.82417243  .00000152  00000+0  26334-4 0  9991
2 57779  43.0029 330.9027 0001115 266.3440  93.7275 15.02534137 95549
